#dP2019  7 22  0  0  0.00000000      96 __u+U ITR00 FIT  IAC
## 2063  86400.00000000   900.00000000 58686 0.0000000000000
+   97   C01C02C05C06C07C08C09C10C11C12C13C14C16E01E02E03E04
+        E05E07E08E09E11E12E13E14E15E18E19E21E24E25E26E27E30
+        E31E33E36G01G02G03G04G05G06G07G08G09G10G11G12G13G14
+        G15G16G17G18G19G20G21G22G23G24G25G26G27G28G29G30G31
+        G32J01J02J03J07R01R02R03R04R05R07R08R09R10R11R12R13
+        R14R15R16R17R18R19R20R21R22R23R24R26  0  0  0  0  0
++        13 12 12  9  8  8  8  8  8  8  8  8  9  5  5  6  5
++         6  5  5  5  5  5  5  6  5  5  5  5  6  5  5  5  5
++         5  5  5  4  4  4  4  4  4  4  4  4  3  4  4  3  4
++         3  4  4  4  4  3  3  4  6  3  4  3  3  3  3  4  3
++         4  9 10 11 14  6  6  5  5  5  5  5  5  5  5  5  6
++         5  5  6  5  5  6  6  5  5  5  6  8  0  0  0  0  0
%c M  cc GPS ccc cccc cccc cccc cccc ccccc ccccc ccccc ccccc
%c cc cc ccc ccc cccc cccc cccc cccc ccccc ccccc ccccc ccccc
%f  0.0000000  0.000000000  0.00000000000  0.000000000000000
%f  0.0000000  0.000000000  0.00000000000  0.000000000000000
%i    0    0    0    0      0      0      0      0         0
%i    0    0    0    0      0      0      0      0         0
/*                                                          
/*   RSA / INFORMATION & ANALYSIS CENTER (IAC) OF MCC       
/*   ULTRA-RAPID DETERMINATION                              
/* PCV:IGS14_2056 OL/AL:FES2004  NONE     YN ORB:CoN CLK:CoN
*  2019 07 22  8 30  0.00000000
PC01 -32351.811332  27023.823213   -456.131485    868.239410
PC02   4398.253047  41921.462878   1344.746626     19.646476
PC05  21917.602698  36026.973527    964.326913   -419.581041
PC06 -20046.306662  37316.416960   -626.070714    529.655299
PC07  -8196.055130  28558.282588 -29606.734661    -18.265716
PC08 -19177.599640  19974.463802  31750.199099    168.142037
PC09 -10671.810778  38080.381895 -14868.953066   -168.193189
PC10   5154.939658  35747.092166 -21241.504076     -9.989442
PC11 -14349.045845  21043.848802  11376.966527    255.508377
PC12 -22868.268294   6195.812102 -14620.107117    890.015404
PC13  -4927.457054  23291.256020  34820.704956   -859.075650
PC14 -10713.043888  17235.876407  19238.085697    525.019736
PC16 -18034.446827  38106.380963  -2858.867762   -886.741125
PE01 -22442.699270 -19131.097273  -2613.035422   -652.297869
PE02  22463.438408  19089.173027   2679.272309     70.423433
PE03  12369.708489  15362.618394 -22059.940059   -190.984876
PE04 -18077.642201   6372.812810  22566.203727   -328.449077
PE05   -648.610800  28307.178902  -8614.118577   -464.260940
PE07  13195.798014 -24633.308330  -9765.543262   -231.233630
PE08  17891.964664  -6705.739201 -22602.188692   6320.063949
PE09 -12945.704292  24740.980676   9807.568206   6371.322625
PE11 -20224.401928  16113.715425  14408.516268   5647.163570
PE12 -28735.904307   5644.473543  -4374.712847   6286.077180
PE13  20246.470425 -16132.540407 -14350.001298    390.340182
PE14  -7499.662683  22475.291406   8874.172556   -652.198252
PE15  28695.210804  -6037.340724   4032.866613    902.289935
PE18  -3336.161784 -23673.477755 -20683.304927   -747.622442
PE19 -11218.747096 -17211.923021  21318.906960     -5.008980
PE21  -9469.513947 -23296.287642  15623.119096   -545.434404
PE24  -9000.777010  13930.418818 -24526.062823   5964.265137
PE25   9397.453868  23273.879558 -15674.305115   1734.909439
PE26    -89.918952 -16943.423897 -24273.952441   4312.230861
PE27   9114.183271 -13751.515143  24581.690434    424.008873
PE30  22234.517836   3781.824521  19163.699280   4690.959473
PE31 -22302.800699  -3855.346079 -19074.871366   -466.680189
PE33 -20357.603979  -7616.478919 -20095.644026   -469.819772
PE36     90.053756  16798.971534  24370.020040    684.448282
PG01 -13492.832432 -13477.876505 -18816.993894    -74.247794
PG02  -9584.910336  14665.532628  20534.188498   -265.726417
PG03 -13183.045159 -23047.546732   1729.212664    179.656869
PG04  12983.606840 -22712.603680   1940.295271     12.635249
PG05  -1273.570511  21126.353302  15793.563687     -0.109257
PG06 -22863.104446   6872.921684  11713.229802     -1.418491
PG07 -24699.504909  -7136.558742   7875.125224    -69.398026
PG08   1488.521200 -21766.823559 -14973.984402   -152.142815
PG09 -15052.882171  -4587.518730  21357.556883    365.398909
PG10  16147.977810   -611.801930 -21051.615451    -24.718865
PG11  -8663.366234 -14233.467313 -21198.749162   -555.023461
PG12   9903.521595  24727.143350  -1053.348861    221.525147
PG13 -11479.709611  22523.771671  -8161.769602    -53.445344
PG14  18543.071439 -17942.618694  -5547.122292    -70.347348
PG15   1554.957587  21758.736910 -15153.460561   -299.287317
PG16   3272.932203 -20461.669510  16167.869559    -58.320864
PG17 -19418.308820  12305.274554 -12820.827418     93.032368
PG18  -3853.061131 -15420.345205 -21794.975913     71.840684
PG19 -19641.261797  16247.857257  -7858.965810   -290.975415
PG20  19791.868648   7777.422375 -16116.955417    526.088332
PG21  26092.588022   2756.521085   4253.937893   -150.176776
PG22  -9868.184381 -24031.861865  -5521.643692   -734.309793
PG23      0.000000      0.000000      0.000000 999999.999999
PG24  10827.114300  14436.218446 -19746.832996    -69.134087
PG25  17092.677594  17338.907886  10697.238699     -2.630499
PG26  10063.223495 -12751.127095  20964.523654    257.239590
PG27  11587.126796 -23360.613128  -4219.853971   -192.025914
PG28 -15412.945907   -675.940480 -21003.117828    766.103562
PG29  11915.416878   8535.383852  22113.255901    145.050535
PG30 -26481.699400   -103.966350  -3123.804671     -4.023766
PG31  22197.043246  -7405.843061  12972.256383     22.619810
PG32  19080.222885 -12833.795906 -13120.411806      6.922357
PJ01 -26052.384302  25541.986695  26169.545261   -269.438265
PJ02 -25897.167384  15133.110195 -25212.837883     -1.415387
PJ03 -26080.630257  32756.808904    135.432179     -0.033526
PJ07 -25391.551556  33655.788252    -20.927702     -0.011313
PR01   9636.984554 -12788.956127 -19855.583580     47.056261
PR02   1884.277969 -25257.532334  -2749.284996    379.536798
PR03  -6348.472547 -20260.977089  14147.638051     -1.292698
PR04 -10862.044616  -2916.652316  22913.736025    314.730730
PR05  -9018.498659  14990.272390  18586.112078     32.361181
PR07   6473.895785  19995.560317 -14443.440970    -23.809622
PR08  10764.116021   3821.069774 -22752.740193     16.631527
PR09   5440.465564  14725.139248 -20066.086311     81.398943
PR10  17746.444342  15926.245729  -8953.070511     54.938484
PR11  22221.107173   8109.192153   9493.799827    -73.484712
PR12  13748.556529  -3396.733942  21249.130225     45.862957
PR13  -3631.125280 -13752.767975  21163.095945    -26.189301
PR14 -18031.872422 -15824.096304   8713.084773     41.195954
PR15 -22321.759753  -8800.939703  -8642.823266    103.199896
PR16 -13542.620922   3947.011893 -21244.222451      7.228299
PR17  -6930.887654  -8285.446828 -23103.857895    245.648111
PR18 -20048.373258   2873.461629 -15535.326659      1.113645
PR19 -22609.705411  11801.067371    292.074734    -43.598319
PR20 -11071.405233  14626.404743  17745.859633   -385.055960
PR21   7610.842426   7786.494899  23062.675233    -61.291716
PR22  21184.141030  -4556.529893  13355.829195    -29.557630
PR23  20450.733844 -14054.726080  -5924.613131    242.260533
PR24   8976.146939 -14534.723387 -18969.114599   -182.876619
PR26 -13288.285125  15173.261574  15603.988145    -15.210772
EOF
